[
	{
		"ZIP": "4865846",
		"Address": "chgfu",
		"State": "uhfcudh",
		"First Name": "djufghud",
		"City": "yruyt",
		"Last Name": "gfug",
		"Mobile": "647346457"
	},
	{
		"ZIP": "4865846",
		"Address": "chgfu",
		"State": "uhfcudh",
		"First Name": "djufghud",
		"City": "yruyt",
		"Last Name": "gfug",
		"Mobile": "647346457"
	},
	{
		"ZIP": "4865846",
		"Address": "chgfu",
		"State": "uhfcudh",
		"First Name": "djufghud",
		"City": "yruyt",
		"Last Name": "gfug",
		"Mobile": "647346457"
	},
	{
		"ZIP": "4865846",
		"Address": "chgfu",
		"State": "uhfcudh",
		"First Name": "djufghud",
		"City": "yruyt",
		"Last Name": "gfug",
		"Mobile": "647346457"
	},
	{
		"ZIP": "yury",
		"Address": "hvgf",
		"State": "hfuhg",
		"First Name": "gfufgu",
		"City": "ruytury",
		"Last Name": "tru",
		"Mobile": "ufyguyg"
	},
	{
		"ZIP": "yty",
		"Address": "rytu",
		"State": "gfg",
		"First Name": "fhygf",
		"City": "ytryt",
		"Last Name": "ryt7ru",
		"Mobile": "574657"
	},
	{
		"ZIP": "yty",
		"Address": "rytu",
		"State": "gfg",
		"First Name": "fhygf",
		"City": "ytryt",
		"Last Name": "ryt7ru",
		"Mobile": "574657"
	},
	{
		"ZIP": "648658",
		"Address": "mangalore",
		"State": "karnataka",
		"First Name": "chaithra",
		"City": "puthur",
		"Last Name": "shenoy",
		"Mobile": "74685679867"
	}
]